[{"OBJECT_NAME":"STARLINK-36062","OBJECT_ID":"2025-278D","EPOCH":"2026-03-09T03:31:10.346592","MEAN_MOTION":15.27594512,"ECCENTRICITY":0.00010859,"INCLINATION":42.9972,"RA_OF_ASC_NODE":117.6427,"ARG_OF_PERICENTER":283.1516,"MEAN_ANOMALY":76.9215,"EPHEMERIS_TYPE":0,"CLASSIFICATION_TYPE":"U","NORAD_CAT_ID":66794,"ELEMENT_SET_NO":999,"REV_AT_EPOCH":1512,"BSTAR":0.0010821006,"MEAN_MOTION_DOT":0.00029648,"MEAN_MOTION_DDOT":0},{"OBJECT_NAME":"CZ-4B DEB","OBJECT_ID":"1999-057H","EPOCH":"2026-03-09T17:25:29.363520","MEAN_MOTION":15.25756771,"ECCENTRICITY":0.00339549,"INCLINATION":98.6728,"RA_OF_ASC_NODE":149.1557,"ARG_OF_PERICENTER":175.409,"MEAN_ANOMALY":184.7463,"EPHEMERIS_TYPE":0,"CLASSIFICATION_TYPE":"U","NORAD_CAT_ID":26121,"ELEMENT_SET_NO":999,"REV_AT_EPOCH":41150,"BSTAR":0.00075758105,"MEAN_MOTION_DOT":0.00019602,"MEAN_MOTION_DDOT":0}]
